{
  "type": "FeatureCollection",
  "features": [
    {
      "type": "Feature",
      "properties": {
        "norad_id": 46805,
        "name": "COSMOS 2547 (705K)",
        "group": "glo-ops",
        "lat": -19.628502026638643,
        "lon": -171.54302574429448,
        "alt_km": 19138.488197856845,
        "timestamp": "2025-12-27T03:58:44.414006+00:00",
        "meta_object_name": "COSMOS 2547 (705K)",
        "meta_object_id": "2020-075A",
        "meta_epoch": "2025-12-26T06:08:16.586592",
        "meta_mean_motion": 2.13100169,
        "meta_eccentricity": 0.0006102,
        "meta_inclination": 64.597,
        "meta_ra_of_asc_node": 198.2449,
        "meta_arg_of_pericenter": 227.5129,
        "meta_mean_anomaly": 132.4903,
        "meta_ephemeris_type": 0,
        "meta_classification_type": "U",
        "meta_norad_cat_id": 46805,
        "meta_element_set_no": 999,
        "meta_rev_at_epoch": 4022,
        "meta_bstar": 0,
        "meta_mean_motion_dot": 1.12e-06,
        "meta_mean_motion_ddot": 0,
        "tle_line1": "1 46805U 20075A   25360.25574753  .00000112  00000+0  00000+0 0  9993",
        "tle_line2": "2 46805  64.5970 198.2449 0006102 227.5129 132.4903  2.13100169 40223"
      },
      "geometry": {
        "type": "Point",
        "coordinates": [
          -171.54302574429448,
          -19.628502026638643
        ]
      }
    },
    {
      "type": "Feature",
      "properties": {
        "norad_id": 52984,
        "name": "COSMOS 2557 (706K)",
        "group": "glo-ops",
        "lat": -27.819134084936096,
        "lon": 155.17389425219835,
        "alt_km": 19120.42410300122,
        "timestamp": "2025-12-27T03:58:44.414016+00:00",
        "meta_object_name": "COSMOS 2557 (706K)",
        "meta_object_id": "2022-075A",
        "meta_epoch": "2025-12-25T22:50:27.414816",
        "meta_mean_motion": 2.13102015,
        "meta_eccentricity": 0.00135372,
        "meta_inclination": 64.4024,
        "meta_ra_of_asc_node": 320.5875,
        "meta_arg_of_pericenter": 278.4992,
        "meta_mean_anomaly": 81.3515,
        "meta_ephemeris_type": 0,
        "meta_classification_type": "U",
        "meta_norad_cat_id": 52984,
        "meta_element_set_no": 999,
        "meta_rev_at_epoch": 2702,
        "meta_bstar": 0,
        "meta_mean_motion_dot": -3.5e-07,
        "meta_mean_motion_ddot": 0,
        "tle_line1": "1 52984U 22075A   25359.95170619 -.00000035  00000+0  00000+0 0  9993",
        "tle_line2": "2 52984  64.4024 320.5875 0013537 278.4992  81.3515  2.13102015 27029"
      },
      "geometry": {
        "type": "Point",
        "coordinates": [
          155.17389425219835,
          -27.819134084936096
        ]
      }
    },
    {
      "type": "Feature",
      "properties": {
        "norad_id": 54031,
        "name": "COSMOS 2559 (707K)",
        "group": "glo-ops",
        "lat": -8.90751939192545,
        "lon": -43.691246233996715,
        "alt_km": 19158.842961074584,
        "timestamp": "2025-12-27T03:58:44.414026+00:00",
        "meta_object_name": "COSMOS 2559 (707K)",
        "meta_object_id": "2022-130A",
        "meta_epoch": "2025-12-26T05:45:52.034112",
        "meta_mean_motion": 2.13101192,
        "meta_eccentricity": 0.0011465,
        "meta_inclination": 64.3745,
        "meta_ra_of_asc_node": 320.6663,
        "meta_arg_of_pericenter": 191.5639,
        "meta_mean_anomaly": 168.4144,
        "meta_ephemeris_type": 0,
        "meta_classification_type": "U",
        "meta_norad_cat_id": 54031,
        "meta_element_set_no": 999,
        "meta_rev_at_epoch": 2500,
        "meta_bstar": 0,
        "meta_mean_motion_dot": -3.6e-07,
        "meta_mean_motion_ddot": 0,
        "tle_line1": "1 54031U 22130A   25360.24018558 -.00000036  00000+0  00000+0 0  9998",
        "tle_line2": "2 54031  64.3745 320.6663 0011465 191.5639 168.4144  2.13101192 25006"
      },
      "geometry": {
        "type": "Point",
        "coordinates": [
          -43.691246233996715,
          -8.90751939192545
        ]
      }
    },
    {
      "type": "Feature",
      "properties": {
        "norad_id": 54377,
        "name": "COSMOS 2564 (761)",
        "group": "glo-ops",
        "lat": 58.41308360174201,
        "lon": -31.76580197694384,
        "alt_km": 19124.925066703705,
        "timestamp": "2025-12-27T03:58:44.414036+00:00",
        "meta_object_name": "COSMOS 2564 (761)",
        "meta_object_id": "2022-161A",
        "meta_epoch": "2025-12-26T13:17:06.645696",
        "meta_mean_motion": 2.13101966,
        "meta_eccentricity": 0.0008542,
        "meta_inclination": 64.7391,
        "meta_ra_of_asc_node": 198.4399,
        "meta_arg_of_pericenter": 203.4859,
        "meta_mean_anomaly": 156.5301,
        "meta_ephemeris_type": 0,
        "meta_classification_type": "U",
        "meta_norad_cat_id": 54377,
        "meta_element_set_no": 999,
        "meta_rev_at_epoch": 2395,
        "meta_bstar": 0,
        "meta_mean_motion_dot": 1.15e-06,
        "meta_mean_motion_ddot": 0,
        "tle_line1": "1 54377U 22161A   25360.55354914  .00000115  00000+0  00000+0 0  9995",
        "tle_line2": "2 54377  64.7391 198.4399 0008542 203.4859 156.5301  2.13101966 23950"
      },
      "geometry": {
        "type": "Point",
        "coordinates": [
          -31.76580197694384,
          58.41308360174201
        ]
      }
    },
    {
      "type": "Feature",
      "properties": {
        "norad_id": 57517,
        "name": "COSMOS 2569 (703K)",
        "group": "glo-ops",
        "lat": 63.600968042737314,
        "lon": -170.01115264584593,
        "alt_km": 19150.70897286456,
        "timestamp": "2025-12-27T03:58:44.414046+00:00",
        "meta_object_name": "COSMOS 2569 (703K)",
        "meta_object_id": "2023-114A",
        "meta_epoch": "2025-12-26T02:20:34.905408",
        "meta_mean_motion": 2.13103952,
        "meta_eccentricity": 0.00110098,
        "meta_inclination": 65.2009,
        "meta_ra_of_asc_node": 78.4621,
        "meta_arg_of_pericenter": 287.2132,
        "meta_mean_anomaly": 72.7147,
        "meta_ephemeris_type": 0,
        "meta_classification_type": "U",
        "meta_norad_cat_id": 57517,
        "meta_element_set_no": 999,
        "meta_rev_at_epoch": 1857,
        "meta_bstar": 0,
        "meta_mean_motion_dot": -5e-08,
        "meta_mean_motion_ddot": 0,
        "tle_line1": "1 57517U 23114A   25360.09762622 -.00000005  00000+0  00000+0 0  9990",
        "tle_line2": "2 57517  65.2009  78.4621 0011009 287.2132  72.7147  2.13103952 18578"
      },
      "geometry": {
        "type": "Point",
        "coordinates": [
          -170.01115264584593,
          63.600968042737314
        ]
      }
    },
    {
      "type": "Feature",
      "properties": {
        "norad_id": 63130,
        "name": "COSMOS 2584 (704K)",
        "group": "glo-ops",
        "lat": -5.778784816469492,
        "lon": -98.62959407967007,
        "alt_km": 19114.736799940987,
        "timestamp": "2025-12-27T03:58:44.414057+00:00",
        "meta_object_name": "COSMOS 2584 (704K)",
        "meta_object_id": "2025-042A",
        "meta_epoch": "2025-12-24T02:34:25.549824",
        "meta_mean_motion": 2.13102981,
        "meta_eccentricity": 0.00077651,
        "meta_inclination": 64.9819,
        "meta_ra_of_asc_node": 78.7588,
        "meta_arg_of_pericenter": 220.6893,
        "meta_mean_anomaly": 139.3012,
        "meta_ephemeris_type": 0,
        "meta_classification_type": "U",
        "meta_norad_cat_id": 63130,
        "meta_element_set_no": 999,
        "meta_rev_at_epoch": 631,
        "meta_bstar": 0,
        "meta_mean_motion_dot": 1e-08,
        "meta_mean_motion_ddot": 0,
        "tle_line1": "1 63130U 25042A   25358.10724016  .00000001  00000+0  00000+0 0  9999",
        "tle_line2": "2 63130  64.9819  78.7588 0007765 220.6893 139.3012  2.13102981  6316"
      },
      "geometry": {
        "type": "Point",
        "coordinates": [
          -98.62959407967007,
          -5.778784816469492
        ]
      }
    },
    {
      "type": "Feature",
      "properties": {
        "norad_id": 65590,
        "name": "COSMOS 2596 (708K)",
        "group": "glo-ops",
        "lat": -47.99370747893207,
        "lon": -70.64006104186684,
        "alt_km": 19099.793303681443,
        "timestamp": "2025-12-27T03:58:44.414067+00:00",
        "meta_object_name": "COSMOS 2596 (708K)",
        "meta_object_id": "2025-206B",
        "meta_epoch": "2025-12-26T12:49:29.791776",
        "meta_mean_motion": 2.13100157,
        "meta_eccentricity": 0.0014063,
        "meta_inclination": 64.7367,
        "meta_ra_of_asc_node": 320.9961,
        "meta_arg_of_pericenter": 307.6587,
        "meta_mean_anomaly": 232.6923,
        "meta_ephemeris_type": 0,
        "meta_classification_type": "U",
        "meta_norad_cat_id": 65590,
        "meta_element_set_no": 999,
        "meta_rev_at_epoch": 223,
        "meta_bstar": 0,
        "meta_mean_motion_dot": -3.6e-07,
        "meta_mean_motion_ddot": 0,
        "tle_line1": "1 65590U 25206B   25360.53437259 -.00000036  00000+0  00000+0 0  9992",
        "tle_line2": "2 65590  64.7367 320.9961 0014063 307.6587 232.6923  2.13100157  2234"
      },
      "geometry": {
        "type": "Point",
        "coordinates": [
          -70.64006104186684,
          -47.99370747893207
        ]
      }
    }
  ]
}